STARLINK-2022           
1 47643U 21012Z   24203.22736435  .00004419  00000+0  31527-3 0  9991
2 47643  53.0529 209.2404 0001360  88.4934 271.6211 15.06410088189840
